[
    {
        "Altitude(m)": 706389.1230648113,
        "Argument of Periapsis(deg)": 0.0022780242373254137,
        "Eccentricity": 0.0,
        "Inclination(deg)": 45.0,
        "Latitude(deg)": 41.02765923725313,
        "Longitude(deg)": 9.80488693130304,
        "Mean Anomaly(deg)": 67.76114332949615,
        "RAAN(deg)": 49.99784961170836,
        "Satellite Name": "Constellation 1 224",
        "Satellite Number": 224,
        "Semi-Major Axis(m)": 7083131.272910544,
        "Time(s)": 38
    },
    {
        "Altitude(m)": 706393.8055292612,
        "Argument of Periapsis(deg)": 0.002337972243570819,
        "Eccentricity": 0.0,
        "Inclination(deg)": 45.0,
        "Latitude(deg)": 41.04919854127528,
        "Longitude(deg)": 9.875903037620592,
        "Mean Anomaly(deg)": 67.82184446974608,
        "RAAN(deg)": 49.99779302254279,
        "Satellite Name": "Constellation 1 224",
        "Satellite Number": 224,
        "Semi-Major Axis(m)": 7083131.272910544,
        "Time(s)": 39
    },
    {
        "Altitude(m)": 706398.4787663568,
        "Argument of Periapsis(deg)": 0.0023979202498162246,
        "Eccentricity": 0.0,
        "Inclination(deg)": 45.0,
        "Latitude(deg)": 41.07068877926671,
        "Longitude(deg)": 9.946968066491731,
        "Mean Anomaly(deg)": 67.88254560999597,
        "RAAN(deg)": 49.99773643337722,
        "Satellite Name": "Constellation 1 224",
        "Satellite Number": 224,
        "Semi-Major Axis(m)": 7083131.272910544,
        "Time(s)": 40
    },
    {
        "Altitude(m)": 706403.1427480307,
        "Argument of Periapsis(deg)": 0.00245786825606163,
        "Eccentricity": 0.0,
        "Inclination(deg)": 45.0,
        "Latitude(deg)": 41.09212988286232,
        "Longitude(deg)": 10.01808197515746,
        "Mean Anomaly(deg)": 67.94324675024586,
        "RAAN(deg)": 49.997679844211646,
        "Satellite Name": "Constellation 1 224",
        "Satellite Number": 224,
        "Semi-Major Axis(m)": 7083131.272910544,
        "Time(s)": 41
    },
    {
        "Altitude(m)": 706407.7974462766,
        "Argument of Periapsis(deg)": 0.002517816262307036,
        "Eccentricity": 0.0,
        "Inclination(deg)": 45.0,
        "Latitude(deg)": 41.11352178373745,
        "Longitude(deg)": 10.089244720347718,
        "Mean Anomaly(deg)": 68.00394789049574,
        "RAAN(deg)": 49.997623255046086,
        "Satellite Name": "Constellation 1 224",
        "Satellite Number": 224,
        "Semi-Major Axis(m)": 7083131.272910544,
        "Time(s)": 42
    },
    {
        "Altitude(m)": 706412.4428331531,
        "Argument of Periapsis(deg)": 0.0025777642685524413,
        "Eccentricity": 0.0,
        "Inclination(deg)": 45.0,
        "Latitude(deg)": 41.134864413608796,
        "Longitude(deg)": 10.160456258280057,
        "Mean Anomaly(deg)": 68.06464903074567,
        "RAAN(deg)": 49.99756666588051,
        "Satellite Name": "Constellation 1 224",
        "Satellite Number": 224,
        "Semi-Major Axis(m)": 7083131.272910544,
        "Time(s)": 43
    },
    {
        "Altitude(m)": 706417.0788807744,
        "Argument of Periapsis(deg)": 0.002637712274797847,
        "Eccentricity": 0.0,
        "Inclination(deg)": 45.0,
        "Latitude(deg)": 41.15615770423488,
        "Longitude(deg)": 10.231716376561792,
        "Mean Anomaly(deg)": 68.12535017099555,
        "RAAN(deg)": 49.99751007671494,
        "Satellite Name": "Constellation 1 224",
        "Satellite Number": 224,
        "Semi-Major Axis(m)": 7083131.272910544,
        "Time(s)": 44
    },
    {
        "Altitude(m)": 706421.7055613208,
        "Argument of Periapsis(deg)": 0.0026976602810432526,
        "Eccentricity": 0.0,
        "Inclination(deg)": 45.0,
        "Latitude(deg)": 41.1774015874179,
        "Longitude(deg)": 10.303025366577264,
        "Mean Anomaly(deg)": 68.18605131124546,
        "RAAN(deg)": 49.99745348754937,
        "Satellite Name": "Constellation 1 224",
        "Satellite Number": 224,
        "Semi-Major Axis(m)": 7083131.272910544,
        "Time(s)": 45
    },
    {
        "Altitude(m)": 706426.3228470226,
        "Argument of Periapsis(deg)": 0.0027576082872886585,
        "Eccentricity": 0.0,
        "Inclination(deg)": 45.0,
        "Latitude(deg)": 41.19859599500278,
        "Longitude(deg)": 10.374383014904021,
        "Mean Anomaly(deg)": 68.24675245149537,
        "RAAN(deg)": 49.9973968983838,
        "Satellite Name": "Constellation 1 224",
        "Satellite Number": 224,
        "Semi-Major Axis(m)": 7083131.272910544,
        "Time(s)": 46
    },
    {
        "Altitude(m)": 706430.9307101816,
        "Argument of Periapsis(deg)": 0.0028175562935340644,
        "Eccentricity": 0.0,
        "Inclination(deg)": 45.0,
        "Latitude(deg)": 41.21974085887904,
        "Longitude(deg)": 10.445789275700431,
        "Mean Anomaly(deg)": 68.30745359174524,
        "RAAN(deg)": 49.99734030921823,
        "Satellite Name": "Constellation 1 224",
        "Satellite Number": 224,
        "Semi-Major Axis(m)": 7083131.272910544,
        "Time(s)": 47
    },
    {
        "Altitude(m)": 706435.5291231616,
        "Argument of Periapsis(deg)": 0.00287750429977947,
        "Eccentricity": 0.0,
        "Inclination(deg)": 45.0,
        "Latitude(deg)": 41.240836110981455,
        "Longitude(deg)": 10.517244102607695,
        "Mean Anomaly(deg)": 68.36815473199516,
        "RAAN(deg)": 49.997283720052664,
        "Satellite Name": "Constellation 1 224",
        "Satellite Number": 224,
        "Semi-Major Axis(m)": 7083131.272910544,
        "Time(s)": 48
    },
    {
        "Altitude(m)": 706440.1180583776,
        "Argument of Periapsis(deg)": 0.002937452306024875,
        "Eccentricity": 0.0,
        "Inclination(deg)": 45.0,
        "Latitude(deg)": 41.261881683290575,
        "Longitude(deg)": 10.588747448748373,
        "Mean Anomaly(deg)": 68.42885587224507,
        "RAAN(deg)": 49.99722713088709,
        "Satellite Name": "Constellation 1 224",
        "Satellite Number": 224,
        "Semi-Major Axis(m)": 7083131.272910544,
        "Time(s)": 49
    },
    {
        "Altitude(m)": 706444.6974883173,
        "Argument of Periapsis(deg)": 0.0029974003122702807,
        "Eccentricity": 0.0,
        "Inclination(deg)": 45.0,
        "Latitude(deg)": 41.2828775078337,
        "Longitude(deg)": 10.660299266725838,
        "Mean Anomaly(deg)": 68.48955701249493,
        "RAAN(deg)": 49.99717054172153,
        "Satellite Name": "Constellation 1 224",
        "Satellite Number": 224,
        "Semi-Major Axis(m)": 7083131.272910544,
        "Time(s)": 50
    },
    {
        "Altitude(m)": 706449.2673855217,
        "Argument of Periapsis(deg)": 0.0030573483185156866,
        "Eccentricity": 0.0,
        "Inclination(deg)": 45.0,
        "Latitude(deg)": 41.30382351668565,
        "Longitude(deg)": 10.731899508623167,
        "Mean Anomaly(deg)": 68.55025815274483,
        "RAAN(deg)": 49.99711395255596,
        "Satellite Name": "Constellation 1 224",
        "Satellite Number": 224,
        "Semi-Major Axis(m)": 7083131.272910544,
        "Time(s)": 51
    },
    {
        "Altitude(m)": 706453.8277225983,
        "Argument of Periapsis(deg)": 0.003117296324761092,
        "Eccentricity": 0.0,
        "Inclination(deg)": 45.0,
        "Latitude(deg)": 41.32471964196898,
        "Longitude(deg)": 10.803547957904906,
        "Mean Anomaly(deg)": 68.61095929299474,
        "RAAN(deg)": 49.99705736339039,
        "Satellite Name": "Constellation 1 224",
        "Satellite Number": 224,
        "Semi-Major Axis(m)": 7083131.272910544,
        "Time(s)": 52
    },
    {
        "Altitude(m)": 706458.3784722157,
        "Argument of Periapsis(deg)": 0.0031772443310064975,
        "Eccentricity": 0.0,
        "Inclination(deg)": 45.0,
        "Latitude(deg)": 41.34556581585639,
        "Longitude(deg)": 10.875244901804631,
        "Mean Anomaly(deg)": 68.67166043324463,
        "RAAN(deg)": 49.997000774224816,
        "Satellite Name": "Constellation 1 224",
        "Satellite Number": 224,
        "Semi-Major Axis(m)": 7083131.272910544,
        "Time(s)": 53
    },
    {
        "Altitude(m)": 706462.9196071,
        "Argument of Periapsis(deg)": 0.0032371923372519038,
        "Eccentricity": 0.0,
        "Inclination(deg)": 45.0,
        "Latitude(deg)": 41.36636197056926,
        "Longitude(deg)": 10.946990122741328,
        "Mean Anomaly(deg)": 68.73236157349454,
        "RAAN(deg)": 49.99694418505924,
        "Satellite Name": "Constellation 1 224",
        "Satellite Number": 224,
        "Semi-Major Axis(m)": 7083131.272910544,
        "Time(s)": 54
    },
    {
        "Altitude(m)": 706467.4511000463,
        "Argument of Periapsis(deg)": 0.0032971403434973088,
        "Eccentricity": 0.0,
        "Inclination(deg)": 45.0,
        "Latitude(deg)": 41.38710803838003,
        "Longitude(deg)": 11.018783570707027,
        "Mean Anomaly(deg)": 68.79306271374443,
        "RAAN(deg)": 49.99688759589368,
        "Satellite Name": "Constellation 1 224",
        "Satellite Number": 224,
        "Semi-Major Axis(m)": 7083131.272910544,
        "Time(s)": 55
    },
    {
        "Altitude(m)": 706471.9729239065,
        "Argument of Periapsis(deg)": 0.0033570883497427146,
        "Eccentricity": 0.0,
        "Inclination(deg)": 45.0,
        "Latitude(deg)": 41.40780395161239,
        "Longitude(deg)": 11.090625195168464,
        "Mean Anomaly(deg)": 68.85376385399434,
        "RAAN(deg)": 49.99683100672811,
        "Satellite Name": "Constellation 1 224",
        "Satellite Number": 224,
        "Semi-Major Axis(m)": 7083131.272910544,
        "Time(s)": 56
    }
]